[
    {
        "OBJECT_NAME": "STARLINK-3196",
        "OBJECT_ID": "2021-115AW",
        "EPOCH": "2023-09-14T08:54:20.880000",
        "MEAN_MOTION": 15.08832604,
        "ECCENTRICITY": 0.0001655,
        "INCLINATION": 53.2168,
        "RA_OF_ASC_NODE": 252.2345,
        "ARG_OF_PERICENTER": 88.248,
        "MEAN_ANOMALY": 271.8702,
        "EPHEMERIS_TYPE": 0,
        "CLASSIFICATION_TYPE": "U",
        "NORAD_CAT_ID": 49768,
        "ELEMENT_SET_NO": 999,
        "REV_AT_EPOCH": 9981,
        "BSTAR": -0.000057597,
        "MEAN_MOTION_DOT": -0.00001204,
        "MEAN_MOTION_DDOT": 0
    },
    {
        "OBJECT_NAME": "STARLINK-3208",
        "OBJECT_ID": "2021-115AX",
        "EPOCH": "2023-09-14T07:20:21.140736",
        "MEAN_MOTION": 15.08829009,
        "ECCENTRICITY": 0.0001561,
        "INCLINATION": 53.2175,
        "RA_OF_ASC_NODE": 252.5759,
        "ARG_OF_PERICENTER": 86.5852,
        "MEAN_ANOMALY": 273.5319,
        "EPHEMERIS_TYPE": 0,
        "CLASSIFICATION_TYPE": "U",
        "NORAD_CAT_ID": 49769,
        "ELEMENT_SET_NO": 999,
        "REV_AT_EPOCH": 9980,
        "BSTAR": -0.000060642,
        "MEAN_MOTION_DOT": -0.00001253,
        "MEAN_MOTION_DDOT": 0
    },
    {
        "OBJECT_NAME": "STARLINK-3191",
        "OBJECT_ID": "2021-115AY",
        "EPOCH": "2023-09-13T17:12:27.759744",
        "MEAN_MOTION": 15.08836732,
        "ECCENTRICITY": 0.0001248,
        "INCLINATION": 53.2156,
        "RA_OF_ASC_NODE": 255.2134,
        "ARG_OF_PERICENTER": 90.9361,
        "MEAN_ANOMALY": 269.1774,
        "EPHEMERIS_TYPE": 0,
        "CLASSIFICATION_TYPE": "U",
        "NORAD_CAT_ID": 49770,
        "ELEMENT_SET_NO": 999,
        "REV_AT_EPOCH": 9972,
        "BSTAR": 0.000030824,
        "MEAN_MOTION_DOT": 0.00000203,
        "MEAN_MOTION_DDOT": 0
    },
    {
        "OBJECT_NAME": "STARLINK-3201",
        "OBJECT_ID": "2021-115AZ",
        "EPOCH": "2023-09-14T09:04:56.290656",
        "MEAN_MOTION": 15.08831893,
        "ECCENTRICITY": 0.0001529,
        "INCLINATION": 53.2152,
        "RA_OF_ASC_NODE": 252.1998,
        "ARG_OF_PERICENTER": 87.4393,
        "MEAN_ANOMALY": 272.6774,
        "EPHEMERIS_TYPE": 0,
        "CLASSIFICATION_TYPE": "U",
        "NORAD_CAT_ID": 49771,
        "ELEMENT_SET_NO": 999,
        "REV_AT_EPOCH": 9981,
        "BSTAR": -0.00010343,
        "MEAN_MOTION_DOT": -0.00001933,
        "MEAN_MOTION_DDOT": 0
    },
    {
        "OBJECT_NAME": "STARLINK-3317",
        "OBJECT_ID": "2021-125A",
        "EPOCH": "2023-09-14T07:53:28.332960",
        "MEAN_MOTION": 15.08815244,
        "ECCENTRICITY": 0.0001688,
        "INCLINATION": 53.2224,
        "RA_OF_ASC_NODE": 2.4218,
        "ARG_OF_PERICENTER": 116.0165,
        "MEAN_ANOMALY": 244.1002,
        "EPHEMERIS_TYPE": 0,
        "CLASSIFICATION_TYPE": "U",
        "NORAD_CAT_ID": 50156,
        "ELEMENT_SET_NO": 999,
        "REV_AT_EPOCH": 9914,
        "BSTAR": -0.00018496,
        "MEAN_MOTION_DOT": -0.00003228,
        "MEAN_MOTION_DDOT": 0
    },
    {
        "OBJECT_NAME": "STARLINK-3313",
        "OBJECT_ID": "2021-125B",
        "EPOCH": "2023-09-14T00:30:53.883936",
        "MEAN_MOTION": 15.08839317,
        "ECCENTRICITY": 0.0001601,
        "INCLINATION": 53.2199,
        "RA_OF_ASC_NODE": 13.7975,
        "ARG_OF_PERICENTER": 92.5342,
        "MEAN_ANOMALY": 267.5834,
        "EPHEMERIS_TYPE": 0,
        "CLASSIFICATION_TYPE": "U",
        "NORAD_CAT_ID": 50157,
        "ELEMENT_SET_NO": 999,
        "REV_AT_EPOCH": 9634,
        "BSTAR": -0.0000056143,
        "MEAN_MOTION_DOT": -0.00000377,
        "MEAN_MOTION_DDOT": 0
    },
    {
        "OBJECT_NAME": "STARLINK-3309",
        "OBJECT_ID": "2021-125C",
        "EPOCH": "2023-09-13T14:44:03.857856",
        "MEAN_MOTION": 15.08854833,
        "ECCENTRICITY": 0.0001235,
        "INCLINATION": 53.2181,
        "RA_OF_ASC_NODE": 15.6425,
        "ARG_OF_PERICENTER": 81.2688,
        "MEAN_ANOMALY": 278.8444,
        "EPHEMERIS_TYPE": 0,
        "CLASSIFICATION_TYPE": "U",
        "NORAD_CAT_ID": 50158,
        "ELEMENT_SET_NO": 999,
        "REV_AT_EPOCH": 9628,
        "BSTAR": 0.00039611,
        "MEAN_MOTION_DOT": 0.00006024,
        "MEAN_MOTION_DDOT": 0
    },
    {
        "OBJECT_NAME": "STARLINK-3297",
        "OBJECT_ID": "2021-125D",
        "EPOCH": "2023-09-14T08:08:01.649472",
        "MEAN_MOTION": 15.08821664,
        "ECCENTRICITY": 0.0000999,
        "INCLINATION": 53.2194,
        "RA_OF_ASC_NODE": 12.3897,
        "ARG_OF_PERICENTER": 85.283,
        "MEAN_ANOMALY": 274.8276,
        "EPHEMERIS_TYPE": 0,
        "CLASSIFICATION_TYPE": "U",
        "NORAD_CAT_ID": 50159,
        "ELEMENT_SET_NO": 999,
        "REV_AT_EPOCH": 9593,
        "BSTAR": -0.00025028,
        "MEAN_MOTION_DOT": -0.00004267,
        "MEAN_MOTION_DDOT": 0
    },
    {
        "OBJECT_NAME": "STARLINK-3288",
        "OBJECT_ID": "2021-125E",
        "EPOCH": "2023-09-14T08:17:14.674272",
        "MEAN_MOTION": 15.08826667,
        "ECCENTRICITY": 0.0001558,
        "INCLINATION": 53.2199,
        "RA_OF_ASC_NODE": 12.3504,
        "ARG_OF_PERICENTER": 104.278,
        "MEAN_ANOMALY": 255.8385,
        "EPHEMERIS_TYPE": 0,
        "CLASSIFICATION_TYPE": "U",
        "NORAD_CAT_ID": 50160,
        "ELEMENT_SET_NO": 999,
        "REV_AT_EPOCH": 9899,
        "BSTAR": -0.00016178,
        "MEAN_MOTION_DOT": -0.00002861,
        "MEAN_MOTION_DDOT": 0
    },
    {
        "OBJECT_NAME": "STARLINK-3304",
        "OBJECT_ID": "2021-125F",
        "EPOCH": "2023-09-14T08:22:36.146208",
        "MEAN_MOTION": 15.0878494,
        "ECCENTRICITY": 0.0000671,
        "INCLINATION": 53.2195,
        "RA_OF_ASC_NODE": 12.3304,
        "ARG_OF_PERICENTER": 75.5478,
        "MEAN_ANOMALY": 284.5589,
        "EPHEMERIS_TYPE": 0,
        "CLASSIFICATION_TYPE": "U",
        "NORAD_CAT_ID": 50161,
        "ELEMENT_SET_NO": 999,
        "REV_AT_EPOCH": 9899,
        "BSTAR": -0.00045261,
        "MEAN_MOTION_DOT": -0.00007472,
        "MEAN_MOTION_DDOT": 0
    },
    {
        "OBJECT_NAME": "STARLINK-3303",
        "OBJECT_ID": "2021-125G",
        "EPOCH": "2023-09-14T10:04:29.970912",
        "MEAN_MOTION": 15.79230398,
        "ECCENTRICITY": 0.0001659,
        "INCLINATION": 53.1999,
        "RA_OF_ASC_NODE": 114.3705,
        "ARG_OF_PERICENTER": 259.6342,
        "MEAN_ANOMALY": 100.4494,
        "EPHEMERIS_TYPE": 0,
        "CLASSIFICATION_TYPE": "U",
        "NORAD_CAT_ID": 50162,
        "ELEMENT_SET_NO": 999,
        "REV_AT_EPOCH": 10261,
        "BSTAR": 0.00030536,
        "MEAN_MOTION_DOT": 0.00055586,
        "MEAN_MOTION_DDOT": 0
    },
    {
        "OBJECT_NAME": "STARLINK-3306",
        "OBJECT_ID": "2021-125H",
        "EPOCH": "2023-09-14T06:23:18.615552",
        "MEAN_MOTION": 15.08813676,
        "ECCENTRICITY": 0.0001281,
        "INCLINATION": 53.2184,
        "RA_OF_ASC_NODE": 352.6931,
        "ARG_OF_PERICENTER": 73.2532,
        "MEAN_ANOMALY": 286.86,
        "EPHEMERIS_TYPE": 0,
        "CLASSIFICATION_TYPE": "U",
        "NORAD_CAT_ID": 50163,
        "ELEMENT_SET_NO": 999,
        "REV_AT_EPOCH": 9926,
        "BSTAR": -0.00051787,
        "MEAN_MOTION_DOT": -0.00008514,
        "MEAN_MOTION_DDOT": 0
    }
]