STARLINK-3196           
1 49768U 21115AW  23257.37107500 -.00001204  00000+0 -57597-4 0  9991
2 49768  53.2168 252.2345 0001655  88.2480 271.8702 15.08832604 99812
STARLINK-3208           
1 49769U 21115AX  23257.30580024 -.00001253  00000+0 -60642-4 0  9990
2 49769  53.2175 252.5759 0001561  86.5852 273.5319 15.08829009 99800
STARLINK-3191           
1 49770U 21115AY  23256.71698796  .00000203  00000+0  30824-4 0  9993
2 49770  53.2156 255.2134 0001248  90.9361 269.1774 15.08836732 99722
STARLINK-3201           
1 49771U 21115AZ  23257.37842929 -.00001933  00000+0 -10343-3 0  9992
2 49771  53.2152 252.1998 0001529  87.4393 272.6774 15.08831893 99813
STARLINK-3317           
1 50156U 21125A   23257.32880015 -.00003228  00000+0 -18496-3 0  9991
2 50156  53.2224   2.4218 0001688 116.0165 244.1002 15.08815244 99141
STARLINK-3313           
1 50157U 21125B   23257.02145699 -.00000377  00000+0 -56143-5 0  9996
2 50157  53.2199  13.7975 0001601  92.5342 267.5834 15.08839317 96346
STARLINK-3309           
1 50158U 21125C   23256.61393354  .00006024  00000+0  39611-3 0  9996
2 50158  53.2181  15.6425 0001235  81.2688 278.8444 15.08854833 96285
STARLINK-3297           
1 50159U 21125D   23257.33890798 -.00004267  00000+0 -25028-3 0  9997
2 50159  53.2194  12.3897 0000999  85.2830 274.8276 15.08821664 95932
STARLINK-3288           
1 50160U 21125E   23257.34530873 -.00002861  00000+0 -16178-3 0  9999
2 50160  53.2199  12.3504 0001558 104.2780 255.8385 15.08826667 98999
STARLINK-3304           
1 50161U 21125F   23257.34902947 -.00007472  00000+0 -45261-3 0  9993
2 50161  53.2195  12.3304 0000671  75.5478 284.5589 15.08784940 98995
STARLINK-3303           
1 50162U 21125G   23257.41979133  .00055586  00000+0  30536-3 0  9999
2 50162  53.1999 114.3705 0001659 259.6342 100.4494 15.79230398102614
STARLINK-3306           
1 50163U 21125H   23257.26618768 -.00008514  00000+0 -51787-3 0  9999
2 50163  53.2184 352.6931 0001281  73.2532 286.8600 15.08813676 99264
